CCSDS_OMM_VERS = 2.0
CREATION_DATE  = 
ORIGINATOR     = 

OBJECT_NAME    = H-2A R/B
OBJECT_ID      = 2006-002B
CENTER_NAME    = EARTH
REF_FRAME      = TEME
TIME_SYSTEM    = UTC
MEAN_ELEMENT_THEORY = SGP/SGP4

EPOCH          = 2026-04-05T09:27:50.081760
MEAN_MOTION    = 15.17073518
ECCENTRICITY   = .0052504
INCLINATION    = 98.2467
RA_OF_ASC_NODE = 244.7349
ARG_OF_PERICENTER = 149.9859
MEAN_ANOMALY   = 210.4399

EPHEMERIS_TYPE = 0
CLASSIFICATION_TYPE = U
NORAD_CAT_ID   = 28932
ELEMENT_SET_NO = 999
REV_AT_EPOCH   = 9848
BSTAR          = .64387E-3
MEAN_MOTION_DOT = .13143E-3
MEAN_MOTION_DDOT = 0

CCSDS_OMM_VERS = 2.0
CREATION_DATE  = 
ORIGINATOR     = 

OBJECT_NAME    = RESURS-DK 1
OBJECT_ID      = 2006-021A
CENTER_NAME    = EARTH
REF_FRAME      = TEME
TIME_SYSTEM    = UTC
MEAN_ELEMENT_THEORY = SGP/SGP4

EPOCH          = 2026-04-05T05:57:08.330112
MEAN_MOTION    = 15.12915812
ECCENTRICITY   = .00020601
INCLINATION    = 69.9329
RA_OF_ASC_NODE = 168.3203
ARG_OF_PERICENTER = 32.7151
MEAN_ANOMALY   = 327.4142

EPHEMERIS_TYPE = 0
CLASSIFICATION_TYPE = U
NORAD_CAT_ID   = 29228
ELEMENT_SET_NO = 999
REV_AT_EPOCH   = 9154
BSTAR          = .19855547E-3
MEAN_MOTION_DOT = .3399E-4
MEAN_MOTION_DDOT = 0

CCSDS_OMM_VERS = 2.0
CREATION_DATE  = 
ORIGINATOR     = 

OBJECT_NAME    = CZ-4B R/B
OBJECT_ID      = 2006-046C
CENTER_NAME    = EARTH
REF_FRAME      = TEME
TIME_SYSTEM    = UTC
MEAN_ELEMENT_THEORY = SGP/SGP4

EPOCH          = 2026-04-05T09:20:03.293664
MEAN_MOTION    = 15.17200640
ECCENTRICITY   = .0033391
INCLINATION    = 97.5536
RA_OF_ASC_NODE = 140.2231
ARG_OF_PERICENTER = 172.2927
MEAN_ANOMALY   = 187.8826

EPHEMERIS_TYPE = 0
CLASSIFICATION_TYPE = U
NORAD_CAT_ID   = 29507
ELEMENT_SET_NO = 999
REV_AT_EPOCH   = 6409
BSTAR          = .32348E-3
MEAN_MOTION_DOT = .6452E-4
MEAN_MOTION_DDOT = 0

CCSDS_OMM_VERS = 2.0
CREATION_DATE  = 
ORIGINATOR     = 

OBJECT_NAME    = CZ-2C R/B
OBJECT_ID      = 2007-010B
CENTER_NAME    = EARTH
REF_FRAME      = TEME
TIME_SYSTEM    = UTC
MEAN_ELEMENT_THEORY = SGP/SGP4

EPOCH          = 2026-04-05T06:51:19.177632
MEAN_MOTION    = 14.20256773
ECCENTRICITY   = .0058394
INCLINATION    = 98.4006
RA_OF_ASC_NODE = 207.2349
ARG_OF_PERICENTER = 215.9362
MEAN_ANOMALY   = 143.7882

EPHEMERIS_TYPE = 0
CLASSIFICATION_TYPE = U
NORAD_CAT_ID   = 31114
ELEMENT_SET_NO = 999
REV_AT_EPOCH   = 98349
BSTAR          = .117E-3
MEAN_MOTION_DOT = .213E-5
MEAN_MOTION_DDOT = 0

CCSDS_OMM_VERS = 2.0
CREATION_DATE  = 
ORIGINATOR     = 

OBJECT_NAME    = COSMO-SKYMED 1
OBJECT_ID      = 2007-023A
CENTER_NAME    = EARTH
REF_FRAME      = TEME
TIME_SYSTEM    = UTC
MEAN_ELEMENT_THEORY = SGP/SGP4

EPOCH          = 2026-04-05T12:59:29.836320
MEAN_MOTION    = 14.96748908
ECCENTRICITY   = .0001659
INCLINATION    = 97.8875
RA_OF_ASC_NODE = 286.7927
ARG_OF_PERICENTER = 98.8956
MEAN_ANOMALY   = 261.2453

EPHEMERIS_TYPE = 0
CLASSIFICATION_TYPE = U
NORAD_CAT_ID   = 31598
ELEMENT_SET_NO = 999
REV_AT_EPOCH   = 1892
BSTAR          = .4617E-3
MEAN_MOTION_DOT = .522E-4
MEAN_MOTION_DDOT = 0

CCSDS_OMM_VERS = 2.0
CREATION_DATE  = 
ORIGINATOR     = 

OBJECT_NAME    = COSMOS 2428
OBJECT_ID      = 2007-029A
CENTER_NAME    = EARTH
REF_FRAME      = TEME
TIME_SYSTEM    = UTC
MEAN_ELEMENT_THEORY = SGP/SGP4

EPOCH          = 2026-04-05T12:10:56.873280
MEAN_MOTION    = 14.12948972
ECCENTRICITY   = .000969
INCLINATION    = 70.9420
RA_OF_ASC_NODE = 147.0577
ARG_OF_PERICENTER = 249.1567
MEAN_ANOMALY   = 110.8516

EPHEMERIS_TYPE = 0
CLASSIFICATION_TYPE = U
NORAD_CAT_ID   = 31792
ELEMENT_SET_NO = 999
REV_AT_EPOCH   = 96788
BSTAR          = .90127E-5
MEAN_MOTION_DOT = -.31E-6
MEAN_MOTION_DDOT = 0

CCSDS_OMM_VERS = 2.0
CREATION_DATE  = 
ORIGINATOR     = 

OBJECT_NAME    = SL-16 R/B
OBJECT_ID      = 2007-029B
CENTER_NAME    = EARTH
REF_FRAME      = TEME
TIME_SYSTEM    = UTC
MEAN_ELEMENT_THEORY = SGP/SGP4

EPOCH          = 2026-04-05T12:26:34.802304
MEAN_MOTION    = 14.14843857
ECCENTRICITY   = .000292
INCLINATION    = 70.9737
RA_OF_ASC_NODE = 115.9896
ARG_OF_PERICENTER = 276.4309
MEAN_ANOMALY   = 235.9697

EPHEMERIS_TYPE = 0
CLASSIFICATION_TYPE = U
NORAD_CAT_ID   = 31793
ELEMENT_SET_NO = 999
REV_AT_EPOCH   = 96916
BSTAR          = -.41947E-4
MEAN_MOTION_DOT = -.129E-5
MEAN_MOTION_DDOT = 0

CCSDS_OMM_VERS = 2.0
CREATION_DATE  = 
ORIGINATOR     = 

OBJECT_NAME    = KORONAS-FOTON
OBJECT_ID      = 2009-003A
CENTER_NAME    = EARTH
REF_FRAME      = TEME
TIME_SYSTEM    = UTC
MEAN_ELEMENT_THEORY = SGP/SGP4

EPOCH          = 2026-04-05T11:18:28.647360
MEAN_MOTION    = 15.44118595
ECCENTRICITY   = .0011411
INCLINATION    = 82.4289
RA_OF_ASC_NODE = 248.0152
ARG_OF_PERICENTER = 62.3410
MEAN_ANOMALY   = 297.8994

EPHEMERIS_TYPE = 0
CLASSIFICATION_TYPE = U
NORAD_CAT_ID   = 33504
ELEMENT_SET_NO = 999
REV_AT_EPOCH   = 94987
BSTAR          = .37495E-3
MEAN_MOTION_DOT = .17243E-3
MEAN_MOTION_DDOT = 0

CCSDS_OMM_VERS = 2.0
CREATION_DATE  = 
ORIGINATOR     = 

OBJECT_NAME    = CZ-2C R/B
OBJECT_ID      = 2011-030B
CENTER_NAME    = EARTH
REF_FRAME      = TEME
TIME_SYSTEM    = UTC
MEAN_ELEMENT_THEORY = SGP/SGP4

EPOCH          = 2026-04-05T12:11:03.315264
MEAN_MOTION    = 14.81320847
ECCENTRICITY   = .005092
INCLINATION    = 97.8589
RA_OF_ASC_NODE = 52.2440
ARG_OF_PERICENTER = 262.9741
MEAN_ANOMALY   = 214.2240

EPHEMERIS_TYPE = 0
CLASSIFICATION_TYPE = U
NORAD_CAT_ID   = 37731
ELEMENT_SET_NO = 999
REV_AT_EPOCH   = 79406
BSTAR          = .24958E-3
MEAN_MOTION_DOT = .1936E-4
MEAN_MOTION_DDOT = 0

CCSDS_OMM_VERS = 2.0
CREATION_DATE  = 
ORIGINATOR     = 

OBJECT_NAME    = H-2A R/B
OBJECT_ID      = 2012-025E
CENTER_NAME    = EARTH
REF_FRAME      = TEME
TIME_SYSTEM    = UTC
MEAN_ELEMENT_THEORY = SGP/SGP4

EPOCH          = 2026-04-05T11:54:14.592672
MEAN_MOTION    = 14.95360871
ECCENTRICITY   = .0043392
INCLINATION    = 98.4774
RA_OF_ASC_NODE = 64.7004
ARG_OF_PERICENTER = 224.0812
MEAN_ANOMALY   = 135.6944

EPHEMERIS_TYPE = 0
CLASSIFICATION_TYPE = U
NORAD_CAT_ID   = 38341
ELEMENT_SET_NO = 999
REV_AT_EPOCH   = 75222
BSTAR          = .29324E-3
MEAN_MOTION_DOT = .3226E-4
MEAN_MOTION_DDOT = 0

CCSDS_OMM_VERS = 2.0
CREATION_DATE  = 
ORIGINATOR     = 

OBJECT_NAME    = SHIJIAN-16 (SJ-16)
OBJECT_ID      = 2013-057A
CENTER_NAME    = EARTH
REF_FRAME      = TEME
TIME_SYSTEM    = UTC
MEAN_ELEMENT_THEORY = SGP/SGP4

EPOCH          = 2026-04-05T12:15:21.086208
MEAN_MOTION    = 14.92442811
ECCENTRICITY   = .001541
INCLINATION    = 74.9708
RA_OF_ASC_NODE = 134.3132
ARG_OF_PERICENTER = 43.1811
MEAN_ANOMALY   = 317.0583

EPHEMERIS_TYPE = 0
CLASSIFICATION_TYPE = U
NORAD_CAT_ID   = 39358
ELEMENT_SET_NO = 999
REV_AT_EPOCH   = 67550
BSTAR          = .1019E-3
MEAN_MOTION_DOT = .1017E-4
MEAN_MOTION_DDOT = 0

CCSDS_OMM_VERS = 2.0
CREATION_DATE  = 
ORIGINATOR     = 

OBJECT_NAME    = SL-4 R/B
OBJECT_ID      = 2014-021B
CENTER_NAME    = EARTH
REF_FRAME      = TEME
TIME_SYSTEM    = UTC
MEAN_ELEMENT_THEORY = SGP/SGP4

EPOCH          = 2026-04-05T12:00:25.269408
MEAN_MOTION    = 15.40209708
ECCENTRICITY   = .0094217
INCLINATION    = 51.6069
RA_OF_ASC_NODE = 206.3906
ARG_OF_PERICENTER = 200.8406
MEAN_ANOMALY   = 158.8727

EPHEMERIS_TYPE = 0
CLASSIFICATION_TYPE = U
NORAD_CAT_ID   = 39679
ELEMENT_SET_NO = 999
REV_AT_EPOCH   = 66040
BSTAR          = .42932E-3
MEAN_MOTION_DOT = .20122E-3
MEAN_MOTION_DDOT = 0

