H-2A R/B                
1 28932U 06002B   26095.39432965  .00013143  00000+0  64387-3 0  9997
2 28932  98.2467 244.7349 0052504 149.9859 210.4399 15.17073518 98481
RESURS-DK 1             
1 29228U 06021A   26095.24801308  .00003399  00000+0  19856-3 0  9995
2 29228  69.9329 168.3203 0002060  32.7151 327.4142 15.12915812 91540
CZ-4B R/B               
1 29507U 06046C   26095.38892701  .00006452  00000+0  32348-3 0  9998
2 29507  97.5536 140.2231 0033391 172.2927 187.8826 15.17200640 64097
CZ-2C R/B               
1 31114U 07010B   26095.28563863  .00000213  00000+0  11700-3 0  9998
2 31114  98.4006 207.2349 0058394 215.9362 143.7882 14.20256773983496
COSMO-SKYMED 1          
1 31598U 07023A   26095.54131755  .00005220  00000+0  46170-3 0  9990
2 31598  97.8875 286.7927 0001659  98.8956 261.2453 14.96748908 18928
COSMOS 2428             
1 31792U 07029A   26095.50760270 -.00000031  00000+0  90127-5 0  9997
2 31792  70.9420 147.0577 0009690 249.1567 110.8516 14.12948972967882
SL-16 R/B               
1 31793U 07029B   26095.51845836 -.00000129  00000+0 -41947-4 0  9995
2 31793  70.9737 115.9896 0002920 276.4309 235.9697 14.14843857969168
KORONAS-FOTON           
1 33504U 09003A   26095.47116490  .00017243  00000+0  37495-3 0  9998
2 33504  82.4289 248.0152 0011411  62.3410 297.8994 15.44118595949874
CZ-2C R/B               
1 37731U 11030B   26095.50767726  .00001936  00000+0  24958-3 0  9997
2 37731  97.8589  52.2440 0050920 262.9741 214.2240 14.81320847794062
H-2A R/B                
1 38341U 12025E   26095.49600223  .00003226  00000+0  29324-3 0  9992
2 38341  98.4774  64.7004 0043392 224.0812 135.6944 14.95360871752225
SHIJIAN-16 (SJ-16)      
1 39358U 13057A   26095.51066072  .00001017  00000+0  10190-3 0  9995
2 39358  74.9708 134.3132 0015410  43.1811 317.0583 14.92442811675507
SL-4 R/B                
1 39679U 14021B   26095.50029247  .00020122  00000+0  42932-3 0  9992
2 39679  51.6069 206.3906 0094217 200.8406 158.8727 15.40209708660402
